1 42021U 17008CB  21204.45390427  .00006453  00000-0  22583-3 0  9999
2 42021  97.3244 272.9262 0006007 325.4844  34.6006 15.29839126246673
1 42021U 17008CB  21204.84635462  .00007174  00000-0  25069-3 0  9996
2 42021  97.3243 273.3130 0005985 323.7391  36.3443 15.29845801246731
1 42021U 17008CB  21205.10798750  .00007285  00000-0  25449-3 0  9991
2 42021  97.3243 273.5709 0005968 322.6340  37.4484 15.29849598246776
1 42021U 17008CB  21205.43502804  .00005994  00000-0  20987-3 0  9997
2 42021  97.3242 273.8934 0005943 321.2281  38.8533 15.29851158246821
1 42021U 17008CB  21206.48155245  .00005777  00000-0  20230-3 0  9996
2 42021  97.3239 274.9250 0005853 316.7312  43.3469 15.29863062246987
1 42021U 17008CB  21207.46266195  .00005325  00000-0  18664-3 0  9999
2 42021  97.3235 275.8921 0005787 312.0722  48.0026 15.29873169247136
1 42021U 17008CB  21208.11673133  .00005211  00000-0  18265-3 0  9997
2 42021  97.3233 276.5368 0005758 309.0697  51.0031 15.29880203247230
1 42021U 17008CB  21208.44376530  .00004931  00000-0  17298-3 0  9997
2 42021  97.3233 276.8592 0005740 307.6632  52.4087 15.29882708247289
1 42021U 17008CB  21208.83620505  .00005167  00000-0  18111-3 0  9991
2 42021  97.3232 277.2460 0005721 305.9101  54.1609 15.29887095247348
1 42021U 17008CB  21209.16323726  .00005393  00000-0  18889-3 0  9996
2 42021  97.3232 277.5684 0005702 304.4883  55.5819 15.29891044247391
1 42021U 17008CB  21209.88270582  .00005728  00000-0  20041-3 0  9991
2 42021  97.3230 278.2775 0005655 301.2880  58.7806 15.29898527247504
1 42021U 17008CB  21210.20973553  .00005826  00000-0  20376-3 0  9997
2 42021  97.3230 278.5999 0005637 299.7121  60.3559 15.29902393247550
1 42021U 17008CB  21210.66757574  .00005983  00000-0  20914-3 0  9992
2 42021  97.3229 279.0512 0005628 297.5624  62.5045 15.29907800247629
1 42021U 17008CB  21211.45244044  .00005411  00000-0  18934-3 0  9998
2 42021  97.3228 279.8247 0005621 293.9277  66.1374 15.29916532247748
1 42021U 17008CB  21211.64865608  .00005249  00000-0  18375-3 0  9992
2 42021  97.3228 280.0181 0005624 292.9267  67.1380 15.29918668247773
1 42021U 17008CB  21212.17189645  .00004678  00000-0  16402-3 0  9995
2 42021  97.3229 280.5338 0005605 290.5287  69.5352 15.29923495247856
1 42021U 17008CB  21212.62973062  .00004766  00000-0  16704-3 0  9992
2 42021  97.3229 280.9850 0005594 288.5063  71.5570 15.29928125247923
1 42021U 17008CB  21213.15296809  .00004762  00000-0  16689-3 0  9996
2 42021  97.3231 281.5007 0005577 286.1074  73.9552 15.29932991248006
1 42021U 17008CB  21213.61080009  .00004226  00000-0  14838-3 0  9999
2 42021  97.3231 281.9519 0005571 283.9764  76.0857 15.29935471248078
1 42021U 17008CB  21214.46105601  .00003720  00000-0  13089-3 0  9994
2 42021  97.3233 282.7898 0005571 279.9949  80.0663 15.29941540248208
1 42021U 17008CB  21214.65726853  .00003692  00000-0  12994-3 0  9995
2 42021  97.3234 282.9832 0005596 279.0581  81.0026 15.29943080248237
1 42021U 17008CB  21215.50751894  .00004576  00000-0  16037-3 0  9997
2 42021  97.3235 283.8211 0005605 275.0372  85.0229 15.29952680248363
1 42021U 17008CB  21215.63832634  .00004581  00000-0  16054-3 0  9998
2 42021  97.3235 283.9500 0005596 274.4504  85.6098 15.29953989248389
1 42021U 17008CB  21215.70372999  .00004463  00000-0  15648-3 0  9996
2 42021  97.3235 284.0145 0005599 274.1388  85.9213 15.29954335248395
1 42021U 17008CB  21216.16155478  .00004544  00000-0  15923-3 0  9994
2 42021  97.3235 284.4657 0005597 272.0333  88.0267 15.29958847248465
1 42021U 17008CB  21216.81558792  .00004570  00000-0  16011-3 0  9990
2 42021  97.3236 285.1105 0005597 268.7277  91.3323 15.29965161248569
1 42021U 17008CB  21217.92743887  .00004197  00000-0  14721-3 0  9995
2 42021  97.3235 286.2064 0005621 263.5852  96.4749 15.29974483248738
1 42021U 17008CB  21218.18905012  .00003589  00000-0  12627-3 0  9991
2 42021  97.3235 286.4643 0005633 262.3442  97.7159 15.29975252248776
1 42021U 17008CB  21218.45066098  .00003650  00000-0  12835-3 0  9993
2 42021  97.3235 286.7222 0005640 260.9775  99.0828 15.29977365248813
1 42021U 17008CB  21218.97388190  .00003704  00000-0  13019-3 0  9995
2 42021  97.3234 287.2379 0005654 258.5327 101.5279 15.29981328248893
1 42021U 17008CB  21219.36629621  .00003429  00000-0  12070-3 0  9996
2 42021  97.3234 287.6248 0005666 256.6912 103.3697 15.29984018248954
1 42021U 17008CB  21219.49710064  .00004553  00000-0  15941-3 0  9991
2 42021  97.3234 287.7537 0005679 256.2191 103.8418 15.29987725248971
1 42021U 17008CB  21220.41272952  .00004888  00000-0  17090-3 0  9992
2 42021  97.3232 288.6563 0005717 252.1188 107.9429 15.29996704249113
1 42021U 17008CB  21220.87054203  .00004846  00000-0  16942-3 0  9998
2 42021  97.3230 289.1077 0005742 250.1149 109.9473 15.30000910249185
1 42021U 17008CB  21221.45915622  .00004327  00000-0  15155-3 0  9993
2 42021  97.3228 289.6879 0005784 247.4422 112.6207 15.30005766249276
1 42021U 17008CB  21221.91696633  .00004003  00000-0  14038-3 0  9992
2 42021  97.3226 290.1392 0005809 245.4010 114.6626 15.30008796249341
1 42021U 17008CB  21222.44017640  .00003620  00000-0  12717-3 0  9992
2 42021  97.3225 290.6550 0005853 243.1098 116.9545 15.30012406249428
1 42021U 17008CB  21222.83258329  .00003051  00000-0  10757-3 0  9996
2 42021  97.3224 291.0418 0005865 241.3352 118.7300 15.30014126249487
1 42021U 17008CB  21222.89798439  .00003051  00000-0  10760-3 0  9997
2 42021  97.3223 291.1063 0005869 241.0299 119.0354 15.30014551249490
1 42021U 17008CB  21223.42119216  .00003773  00000-0  13239-3 0  9992
2 42021  97.3223 291.6220 0005903 238.7261 121.3402 15.30020084249578
1 42021U 17008CB  21223.87899831  .00003451  00000-0  12133-3 0  9994
2 42021  97.3221 292.0732 0005929 236.6649 123.4024 15.30022318249647
1 42021U 17008CB  21224.14060131  .00003512  00000-0  12341-3 0  9997
2 42021  97.3220 292.3311 0005952 235.5366 124.5313 15.30024312249685
1 42021U 17008CB  21224.46760469  .00003395  00000-0  11937-3 0  9992
2 42021  97.3219 292.6534 0005977 234.0645 126.0042 15.30026208249732
1 42021U 17008CB  21225.44861195  .00003733  00000-0  13096-3 0  9993
2 42021  97.3219 293.6202 0006056 229.8895 130.1815 15.30033964249880
1 42021U 17008CB  21225.64481292  .00003713  00000-0  13029-3 0  9995
2 42021  97.3219 293.8136 0006071 229.0396 131.0320 15.30035281249912
1 42021U 17008CB  21226.49501507  .00003575  00000-0  12550-3 0  9995
2 42021  97.3218 294.6515 0006147 225.5915 134.4823 15.30040588250040
1 42021U 17008CB  21226.88741488  .00003604  00000-0  12648-3 0  9993
2 42021  97.3218 295.0382 0006180 223.9725 136.1024 15.30043420250102
1 42021U 17008CB  21227.14901426  .00003578  00000-0  12560-3 0  9996
2 42021  97.3218 295.2960 0006206 222.9622 137.1135 15.30045280250144
1 42021U 17008CB  21227.47601313  .00003711  00000-0  13017-3 0  9991
2 42021  97.3218 295.6183 0006233 221.5331 138.5437 15.30047991250193
1 42021U 17008CB  21227.73761211  .00003767  00000-0  13208-3 0  9997
2 42021  97.3218 295.8761 0006249 220.2512 139.8267 15.30049608250238
1 42021U 17008CB  21228.45700656  .00004302  00000-0  15043-3 0  9998
2 42021  97.3218 296.5851 0006325 217.3992 142.6810 15.30056285250347
1 42021U 17008CB  21228.84940237  .00004291  00000-0  15004-3 0  9996
2 42021  97.3219 296.9718 0006363 215.8856 144.1958 15.30059474250408
1 42021U 17008CB  21229.43799460  .00003907  00000-0  13683-3 0  9996
2 42021  97.3220 297.5519 0006431 213.4685 146.6150 15.30063494250493
1 42021U 17008CB  21229.63419168  .00003890  00000-0  13624-3 0  9998
2 42021  97.3221 297.7453 0006451 212.6932 147.3910 15.30065153250521
1 42021U 17008CB  21229.83038824  .00004084  00000-0  14288-3 0  9999
2 42021  97.3221 297.9387 0006470 211.9790 148.1058 15.30067324250551
1 42021U 17008CB  21230.48437607  .00003938  00000-0  13784-3 0  9991
2 42021  97.3222 298.5832 0006534 209.3655 150.7220 15.30072402250650
1 42021U 17008CB  21230.74597062  .00003886  00000-0  13606-3 0  9997
2 42021  97.3222 298.8411 0006553 208.3810 151.7075 15.30074390250690
1 42021U 17008CB  21231.46535356  .00003806  00000-0  13329-3 0  9999
2 42021  97.3222 299.5501 0006634 205.5672 154.5241 15.30079916250801
1 42021U 17008CB  21231.66154847  .00003819  00000-0  13372-3 0  9995
2 42021  97.3222 299.7435 0006655 204.8387 155.2535 15.30081603250830
1 42021U 17008CB  21232.44632564  .00004048  00000-0  14155-3 0  9994
2 42021  97.3222 300.5171 0006752 201.8925 158.2028 15.30088581250956
1 42021U 17008CB  21232.64251910  .00003841  00000-0  13444-3 0  9998
2 42021  97.3222 300.7105 0006774 201.1252 158.9710 15.30090178250988
1 42021U 17008CB  21233.16570095  .00004945  00000-0  17228-3 0  9994
2 42021  97.3221 301.2262 0006819 199.1681 160.9304 15.30097516251064
1 42021U 17008CB  21233.49268918  .00004527  00000-0  15792-3 0  9998
2 42021  97.3221 301.5485 0006860 197.8483 162.2518 15.30099276251118
1 42021U 17008CB  21233.88507339  .00005252  00000-0  18276-3 0  9990
2 42021  97.3220 301.9353 0006895 196.4585 163.6433 15.30104808251176
1 42021U 17008CB  21234.47364888  .00004554  00000-0  15882-3 0  9990
2 42021  97.3218 302.5155 0006962 194.3110 165.7935 15.30108518251268
1 42021U 17008CB  21234.86603121  .00004715  00000-0  16430-3 0  9998
2 42021  97.3217 302.9023 0006996 192.9521 167.1541 15.30112453251321
1 42021U 17008CB  21235.45460359  .00004138  00000-0  14452-3 0  9999
2 42021  97.3215 303.4824 0007064 190.8763 169.2326 15.30116081251411
1 42021U 17008CB  21235.91238067  .00004382  00000-0  15285-3 0  9995
2 42021  97.3213 303.9337 0007113 189.2578 170.8533 15.30120478251484
1 42021U 17008CB  21236.43555364  .00004296  00000-0  14990-3 0  9991
2 42021  97.3212 304.4494 0007170 187.3933 172.7203 15.30124244251569
1 42021U 17008CB  21236.69713964  .00004352  00000-0  15180-3 0  9996
2 42021  97.3211 304.7072 0007191 186.4429 173.6721 15.30126376251604
1 42021U 17008CB  21236.89332854  .00003529  00000-0  12358-3 0  9992
2 42021  97.3211 304.9006 0007210 185.7452 174.3708 15.30126153251632
